[{"OBJECT_NAME":"SHIJIAN-15 (SJ-15)","OBJECT_ID":"2013-037C","EPOCH":"2026-03-09T22:45:08.192736","MEAN_MOTION":14.71357626,"ECCENTRICITY":0.0007545,"INCLINATION":98.1055,"RA_OF_ASC_NODE":72.3692,"ARG_OF_PERICENTER":101.5082,"MEAN_ANOMALY":258.6973,"EPHEMERIS_TYPE":0,"CLASSIFICATION_TYPE":"U","NORAD_CAT_ID":39210,"ELEMENT_SET_NO":999,"REV_AT_EPOCH":67973,"BSTAR":0.00018012312,"MEAN_MOTION_DOT":1.064e-5,"MEAN_MOTION_DDOT":0},{"OBJECT_NAME":"DELTA 1 DEB","OBJECT_ID":"1978-026FK","EPOCH":"2026-03-09T22:47:25.842624","MEAN_MOTION":14.5522737,"ECCENTRICITY":0.00901067,"INCLINATION":99.0664,"RA_OF_ASC_NODE":224.0246,"ARG_OF_PERICENTER":91.9155,"MEAN_ANOMALY":36.9864,"EPHEMERIS_TYPE":0,"CLASSIFICATION_TYPE":"U","NORAD_CAT_ID":13572,"ELEMENT_SET_NO":999,"REV_AT_EPOCH":29955,"BSTAR":0.0022559783,"MEAN_MOTION_DOT":0.00010268,"MEAN_MOTION_DDOT":0}]
